OBJECT_NAME,OBJECT_ID,EPOCH,MEAN_MOTION,ECCENTRICITY,INCLINATION,RA_OF_ASC_NODE,ARG_OF_PERICENTER,MEAN_ANOMALY,EPHEMERIS_TYPE,CLASSIFICATION_TYPE,NORAD_CAT_ID,ELEMENT_SET_NO,REV_AT_EPOCH,BSTAR,MEAN_MOTION_DOT,MEAN_MOTION_DDOT
STARLINK-31933,2024-098S,2026-06-07T15:21:58.806144,15.27589932,0.00023371,43.0028,129.94,259.3837,100.6752,0,U,59874,999,11560,0.00014042817,3.605e-05,0.0
STARLINK-31936,2024-098T,2026-06-08T02:21:32.150592,15.27578811,0.00012031,43.0013,95.0845,272.4492,87.6222,0,U,59875,999,11603,6.641457e-06,-7.9e-07,0.0
STARLINK-31935,2024-098U,2026-06-08T04:26:41.805312,15.27576602,0.00010675,43.0013,127.1462,264.4218,95.6512,0,U,59876,999,11568,1.887621e-05,2.57e-06,0.0
STARLINK-31934,2024-098V,2026-06-07T15:00:28.327968,15.27577333,0.00013596,43.0027,126.3656,262.2278,97.842,0,U,59877,999,11564,1.6233019e-05,1.85e-06,0.0
STARLINK-31943,2024-098W,2026-06-08T04:10:01.041024,15.42384752,0.00131883,43.006,124.4585,148.1058,212.06,0,U,59878,999,11506,0.0014809859,0.0006589,0.0
STARLINK-31926,2024-098X,2026-06-08T04:34:13.270368,15.27580551,0.00010962,43.0028,116.3919,262.0973,97.9755,0,U,59879,999,11580,-0.00012430773999999998,-3.681e-05,0.0
STARLINK-31919,2024-098Y,2026-06-07T15:33:03.475296,15.27610933,0.00021055,43.0032,129.9948,264.7292,95.3319,0,U,59880,999,11560,0.00019520256999999998,5.118000000000001e-05,0.0
PREFIRE-2,2024-099A,2026-06-08T02:48:06.688512,15.21011703,0.00106312,97.4094,15.4612,233.0859,126.9404,0,U,59881,999,11275,0.00017842006999999998,3.893e-05,0.0
STARLINK-31974,2024-100A,2026-06-07T18:30:04.452768,15.27573888,0.00010311000000000001,42.9999,336.6646,193.5006,166.5818,0,U,59885,999,11483,-4.21035e-05,-1.4200000000000001e-05,0.0
STARLINK-31975,2024-100B,2026-06-06T19:01:24.631680,15.27588966,0.00013182,43.0019,342.2255,274.4599,85.6102,0,U,59886,999,11478,6.1522276e-05,1.432e-05,0.0
STARLINK-31976,2024-100C,2026-06-07T19:24:52.454880,15.27578091,4.593e-05,43.0071,340.3775,59.188,300.9017,0,U,59887,999,11489,4.87217e-06,-1.28e-06,0.0
STARLINK-31965,2024-100D,2026-06-08T04:15:22.221792,15.27557561,0.00011665,43.0039,334.5591,287.7564,72.316,0,U,59888,999,11489,0.00052582982,0.00014226,0.0
STARLINK-31969,2024-100E,2026-06-08T03:51:59.823648,15.27591268,0.00012436,43.0015,330.9801,284.2431,75.8283,0,U,59889,999,11503,0.00014098706,3.621e-05,0.0
STARLINK-31951,2024-100F,2026-06-07T05:34:36.695424,15.27573623,0.00016219999999999999,43.0047,339.5059,267.1676,92.899,0,U,59890,999,11475,9.234500000000001e-05,2.279e-05,0.0
STARLINK-31949,2024-100G,2026-06-07T18:24:33.597792,15.27552097,0.00016868,43.0031,336.628,242.8681,117.1999,0,U,59891,999,11483,-0.00014240516,-4.175e-05,0.0
STARLINK-31977,2024-100H,2026-06-07T17:56:18.841920,15.27568665,0.00019808,43.0023,329.568,244.9974,115.0672,0,U,59892,999,11501,-2.5772645000000004e-05,-9.71e-06,0.0
STARLINK-31963,2024-100J,2026-06-08T04:09:49.547232,15.27566855,1.004e-05,42.9958,334.5329,298.4283,61.6559,0,U,59893,999,11499,6.81942e-06,-7.4e-07,0.0
STARLINK-31961,2024-100K,2026-06-08T03:47:09.078144,15.27575073,0.00015811000000000002,43.0035,327.4853,268.8322,91.2348,0,U,59894,999,11507,-1.3145119000000003e-05,-6.2399999999999995e-06,0.0
STARLINK-31964,2024-100L,2026-06-08T04:52:13.039680,15.2753709,4.4109999999999996e-05,43.0033,333.8832,243.6158,116.4648,0,U,59895,999,11495,-0.00016538894999999998,-4.804000000000001e-05,0.0
STARLINK-31905,2024-100M,2026-06-08T04:06:48.820896,15.27566178,0.00015307,43.0075,331.051,266.2059,93.8618,0,U,59896,999,11503,8.963772e-06,-1.6e-07,0.0
STARLINK-31928,2024-100N,2026-06-08T04:26:28.343328,15.27570617,0.00014139,43.0049,334.6125,276.3254,83.7436,0,U,59897,999,11489,-4.0528091000000005e-05,-1.377e-05,0.0
STARLINK-31953,2024-100P,2026-06-08T04:01:15.877632,15.27575399,0.00010628,43.0026,331.0286,237.532,122.5429,0,U,59898,999,11503,-8.000169200000001e-05,-2.4620000000000005e-05,0.0
STARLINK-31942,2024-100Q,2026-06-07T18:13:24.255264,15.27579367,0.00018099000000000001,43.0054,336.5796,262.9144,97.1502,0,U,59899,999,11492,8.7253443e-05,2.1390000000000004e-05,0.0
STARLINK-31676,2024-100R,2026-06-07T18:39:20.025504,15.27562291,0.00022018,43.0048,336.7123,271.7939,88.2661,0,U,59900,999,11482,-8.111124200000001e-05,-2.493e-05,0.0
STARLINK-31908,2024-100S,2026-06-08T03:41:36.832128,15.27561205,0.00016399,43.0034,327.4613,255.8813,104.1857,0,U,59901,999,11506,-4.095102200000001e-05,-1.3880000000000001e-05,0.0
STARLINK-31914,2024-100T,2026-06-08T04:20:54.221568,15.27589215,0.00018227,43.0024,334.5818,258.558,101.5067,0,U,59902,999,11488,-0.00010306773999999999,-3.098e-05,0.0
STARLINK-31850,2024-100U,2026-06-08T04:59:35.168352,15.27541141,7.128000000000001e-05,43.0088,333.9211,293.0849,66.9928,0,U,59903,999,11494,0.00010359702999999999,2.586e-05,0.0
STARLINK-31924,2024-100V,2026-06-06T18:46:35.825376,15.27582289,0.00019951,43.0033,342.1401,245.4679,114.5965,0,U,59904,999,11477,0.00013437072,3.437e-05,0.0
STARLINK-31898,2024-100W,2026-06-08T03:57:34.307424,15.27561179,0.00015085,43.0051,331.0047,285.5251,74.5434,0,U,59905,999,11502,-4.0188428e-05,-1.3670000000000001e-05,0.0
STARLINK-31861,2024-100X,2026-06-07T18:09:16.606080,15.27565466,0.00030158,43.0031,329.607,279.7421,80.309,0,U,59906,999,11500,-8.5699718e-05,-2.6200000000000003e-05,0.0
STARLINK-31920,2024-100Y,2026-06-08T06:00:04.000320,15.53246051,0.00230244,42.9927,288.3228,339.6899,166.6155,0,U,59907,999,592,0.0030149608,0.0020146,0.0
EARTHCARE,2024-101A,2026-06-08T07:31:33.229920,15.57048093,0.00015308,97.051,286.0021,102.3295,257.8133,0,U,59908,999,11518,0.00014327363999999999,0.00010259,0.0
TIANQI-25,2024-102A,2026-06-08T05:50:38.502816,13.99168007,0.00118464,44.9782,301.746,197.847,162.1947,0,U,59909,999,10365,0.00014569576,8.4e-07,0.0
TIANQI-26,2024-102B,2026-06-08T05:23:50.026848,13.99181292,0.0010718,44.9745,301.4242,201.2814,158.7574,0,U,59910,999,10365,0.00015130004999999998,9.199999999999999e-07,0.0
TIANQI-27,2024-102C,2026-06-08T06:15:23.285952,13.99150292,0.00076043,44.9792,301.1643,209.7841,150.2559,0,U,59911,999,10365,0.0001530289,9.5e-07,0.0
TIANQI-28,2024-102D,2026-06-08T06:42:50.859648,13.99165819,0.0012307,44.9798,301.3085,207.4316,152.5868,0,U,59912,999,10365,0.00015767544,1.02e-06,0.0
PAKSAT-MM1,2024-104A,2026-06-03T15:29:55.900032,1.00274914,0.00020461,0.0154,42.0049,27.2826,93.475,0,U,59915,999,739,0.0,1.6499999999999999e-06,0.0
2024-105A,2024-105A,2026-06-08T07:17:41.948736,15.17036173,0.0011646999999999998,97.5834,174.5357,257.0774,102.9158,0,U,59917,999,11168,0.0001473616,2.8490000000000003e-05,0.0
2024-105B,2024-105B,2026-06-08T07:48:28.631232,15.1902655,0.00100895,97.5826,174.7457,276.0705,83.9379,0,U,59918,999,11170,0.0003334982,6.924000000000001e-05,0.0
2024-105C,2024-105C,2026-05-25T06:13:37.407936,15.16509634,0.0014364999999999998,97.5805,162.1295,266.5691,93.3899,0,U,59919,999,10968,0.00017586000000000001,3.3650000000000005e-05,0.0
2024-105D,2024-105D,2026-06-08T06:50:34.477728,15.22509422,0.0010013700000000001,97.5825,178.1415,246.1851,113.8336,0,U,59920,999,11190,0.00022604213999999998,5.172e-05,0.0
2024-105E,2024-105E,2026-06-07T16:36:39.278592,15.11793302,0.00272658,97.5795,175.3783,214.5214,145.4246,0,U,59921,999,11170,0.00025283639,4.287e-05,0.0
STARLINK-31872,2024-106A,2026-06-07T18:11:22.128864,15.27578732,0.00010057000000000001,43.0,184.2014,278.9711,81.1027,0,U,59922,999,11433,2.5843110000000004e-05,4.49e-06,0.0
STARLINK-31972,2024-106B,2026-06-07T08:20:31.338816,15.27576383,0.00010683,42.9999,186.2855,278.4248,81.6482,0,U,59923,999,11428,1.0618094000000001e-05,3e-07,0.0
STARLINK-31958,2024-106C,2026-06-07T17:55:26.251104,15.27578331,0.00014035,43.0018,169.4161,272.2751,87.794,0,U,59924,999,11446,1.9936216e-05,2.8599999999999997e-06,0.0
STARLINK-31959,2024-106D,2026-06-07T18:35:54.136896,15.27580915,0.00010938,43.0011,179.9294,267.47,92.6027,0,U,59925,999,11434,4.7327600000000004e-05,1.041e-05,0.0
STARLINK-31957,2024-106E,2026-06-07T18:27:48.837600,15.27572965,0.00010319,43.0014,183.4302,272.8066,87.2667,0,U,59926,999,11435,1.3885766e-05,1.2e-06,0.0
STARLINK-31968,2024-106F,2026-06-07T18:38:50.785152,15.27655229,0.00025558,42.9983,183.4806,266.2001,93.8558,0,U,59927,999,11435,0.00040274934,0.00010863000000000001,0.0
STARLINK-31970,2024-106G,2026-06-05T09:10:16.717152,15.27582939,0.00015000000000000001,42.9983,197.3296,261.6812,98.3869,0,U,59928,999,11398,8.4751013e-05,2.0710000000000003e-05,0.0
STARLINK-31932,2024-106H,2026-06-07T18:13:52.870080,15.27527341,2.9140000000000002e-05,43.0019,180.648,176.2335,183.8519,0,U,59929,999,11433,-0.0043775365,-0.0011861600000000001,0.0
STARLINK-31956,2024-106J,2026-06-07T04:57:24.790752,15.27572834,0.00013432,43.0027,186.9503,283.7393,76.3309,0,U,59930,999,11421,-9.589812e-06,-5.26e-06,0.0
STARLINK-31960,2024-106K,2026-06-08T05:41:42.510912,15.27577516,0.00011888,43.0017,180.9178,268.0082,92.0634,0,U,59931,999,11437,1.941672e-06,-2.09e-06,0.0
STARLINK-31432,2024-106L,2026-06-08T06:20:33.880992,15.27574554,0.00019378,43.0003,181.1222,275.851,84.2121,0,U,59932,999,11436,-0.00062441891,-0.00017402,0.0
STARLINK-31853,2024-106M,2026-06-07T19:10:21.808128,15.27579326,0.00017527,43.0022,183.6519,267.5839,92.4812,0,U,59933,999,11430,2.4716929e-05,4.18e-06,0.0
STARLINK-31971,2024-106N,2026-06-07T18:19:25.783968,15.2757446,0.00011244,42.9986,180.6357,267.1367,92.9356,0,U,59934,999,11421,9.809428999999999e-06,8e-08,0.0
STARLINK-31962,2024-106Q,2026-06-07T18:07:40.320192,15.27572453,0.00012371,42.9988,184.1795,278.5555,81.5157,0,U,59936,999,11429,2.2928084000000005e-05,3.69e-06,0.0
STARLINK-31879,2024-106R,2026-06-07T18:22:28.095744,15.27579432,0.00013033,42.9982,184.2551,282.2303,77.8403,0,U,59937,999,11434,6.3242549e-05,1.4790000000000002e-05,0.0
STARLINK-31876,2024-106S,2026-06-08T05:58:22.596960,15.27585121,0.00013321,43.0032,181.0103,278.2397,81.8303,0,U,59938,999,11438,7.5288664e-05,1.8100000000000003e-05,0.0
STARLINK-31955,2024-106T,2026-06-07T18:29:38.713344,15.275847,9.695000000000001e-05,42.9996,183.4314,271.4806,88.5935,0,U,59939,999,11434,3.876814e-05,8.050000000000001e-06,0.0
